IRIDIUM 39              
1 25042U 97069D   25152.59325572  .00001243  00000+0  32062-3 0  9992
2 25042  86.3942 217.8124 0017822   6.9280 353.2167 14.49207930446704
IRIDIUM 38              
1 25043U 97069E   25152.51345860  .00000965  00000+0  31215-3 0  9996
2 25043  86.3973 239.7451 0003753 119.5445 240.6128 14.38108936443704
IRIDIUM 42              
1 25077U 97077A   25152.57008364  .00000860  00000+0  28742-3 0  9998
2 25077  86.3972 245.8724 0002607 110.6973 249.4504 14.36343496438952
IRIDIUM 44              
1 25078U 97077B   25152.70562759  .00000863  00000+0  26656-3 0  9992
2 25078  86.3982 227.7814 0004172  87.4821 272.6856 14.40233792441500
IRIDIUM 45              
1 25104U 97082A   25152.47587292  .00063986  00000+0  22973-2 0  9993
2 25104  86.3590  55.5209 0119471  31.8999 328.9405 15.21843184449659
IRIDIUM 24              
1 25105U 97082B   25152.83745120  .00000591  00000+0  17378-3 0  9997
2 25105  86.3899  86.8114 0013115 122.0975 238.1500 14.42085517441255
IRIDIUM 51              
1 25262U 98018A   25152.81962676  .00053179  00000+0  12110-2 0  9994
2 25262  86.3841  63.4377 0085193 310.9106  48.4790 15.38917430444886
IRIDIUM 57              
1 25273U 98019B   25152.49231142  .00000745  00000+0  25058-3 0  9995
2 25273  86.3964 151.8368 0002345  91.0081 269.1385 14.35885996422530
